{"type": "FeatureCollection", "features": [ {"type": "Feature", "properties": {"norad_id": 66732, "name": "FLOCK 4H-29", "group": "last-30-days", "lat": -31.6195448654429, "lon": 70.02983560155612, "alt_km": 518.9731556111228, "timestamp": "2025-12-19T18:58:40.327556+00:00", "meta": {"OBJECT_NAME": "FLOCK 4H-29", "OBJECT_ID": "2025-276BU", "EPOCH": "2025-12-19T03:17:23.854560", "MEAN_MOTION": 15.17237989, "ECCENTRICITY": 0.00021943, "INCLINATION": 97.4384, "RA_OF_ASC_NODE": 64.7744, "ARG_OF_PERICENTER": 302.309, "MEAN_ANOMALY": 57.7931, "EPHEMERIS_TYPE": 0, "CLASSIFICATION_TYPE": "U", "NORAD_CAT_ID": 66732, "ELEMENT_SET_NO": 999, "REV_AT_EPOCH": 309, "BSTAR": 0.00022456831, "MEAN_MOTION_DOT": 4.401e-05, "MEAN_MOTION_DDOT": 0}, "tle": {"line1": "1 66732U 25276BU  25353.13708165  .00004401  00000+0  22457-3 0  9996", "line2": "2 66732  97.4384  64.7744 0002194 302.3090  57.7931 15.17237989  3092"}}, "geometry": {"type": "Point", "coordinates": [70.02983560155612, -31.6195448654429]}}, {"type": "Feature", "properties": {"norad_id": 66733, "name": "FLOCK 4H-30", "group": "last-30-days", "lat": -37.39133140272481, "lon": 71.17056714474532, "alt_km": 519.090936617722, "timestamp": "2025-12-19T18:58:40.327566+00:00", "meta": {"OBJECT_NAME": "FLOCK 4H-30", "OBJECT_ID": "2025-276BV", "EPOCH": "2025-12-19T03:18:55.128384", "MEAN_MOTION": 15.17201838, "ECCENTRICITY": 0.00031911, "INCLINATION": 97.4449, "RA_OF_ASC_NODE": 64.7933, "ARG_OF_PERICENTER": 282.9674, "MEAN_ANOMALY": 77.1203, "EPHEMERIS_TYPE": 0, "CLASSIFICATION_TYPE": "U", "NORAD_CAT_ID": 66733, "ELEMENT_SET_NO": 999, "REV_AT_EPOCH": 309, "BSTAR": 0.00025581092, "MEAN_MOTION_DOT": 5.018e-05, "MEAN_MOTION_DDOT": 0}, "tle": {"line1": "1 66733U 25276BV  25353.13813806  .00005018  00000+0  25581-3 0  9992", "line2": "2 66733  97.4449  64.7933 0003191 282.9674  77.1203 15.17201838  3096"}}, "geometry": {"type": "Point", "coordinates": [71.17056714474532, -37.39133140272481]}}, {"type": "Feature", "properties": {"norad_id": 66734, "name": "FLOCK 4H-31", "group": "last-30-days", "lat": -36.325928528070996, "lon": 70.92729533168111, "alt_km": 519.2565292334075, "timestamp": "2025-12-19T18:58:40.327578+00:00", "meta": {"OBJECT_NAME": "FLOCK 4H-31", "OBJECT_ID": "2025-276BW", "EPOCH": "2025-12-18T16:13:47.553312", "MEAN_MOTION": 15.17164352, "ECCENTRICITY": 0.0002581, "INCLINATION": 97.4384, "RA_OF_ASC_NODE": 64.3208, "ARG_OF_PERICENTER": 296.4776, "MEAN_ANOMALY": 63.6193, "EPHEMERIS_TYPE": 0, "CLASSIFICATION_TYPE": "U", "NORAD_CAT_ID": 66734, "ELEMENT_SET_NO": 999, "REV_AT_EPOCH": 302, "BSTAR": 0.00022112946, "MEAN_MOTION_DOT": 4.323e-05, "MEAN_MOTION_DDOT": 0}, "tle": {"line1": "1 66734U 25276BW  25352.67624483  .00004323  00000+0  22113-3 0  9998", "line2": "2 66734  97.4384  64.3208 0002581 296.4776  63.6193 15.17164352  3021"}}, "geometry": {"type": "Point", "coordinates": [70.92729533168111, -36.325928528070996]}}, {"type": "Feature", "properties": {"norad_id": 66735, "name": "FLOCK 4H-32", "group": "last-30-days", "lat": -38.75672028716341, "lon": 71.45598976655805, "alt_km": 519.1013247336004, "timestamp": "2025-12-19T18:58:40.327588+00:00", "meta": {"OBJECT_NAME": "FLOCK 4H-32", "OBJECT_ID": "2025-276BX", "EPOCH": "2025-12-18T17:49:25.811040", "MEAN_MOTION": 15.17176368, "ECCENTRICITY": 0.00035594, "INCLINATION": 97.4444, "RA_OF_ASC_NODE": 64.401, "ARG_OF_PERICENTER": 280.5701, "MEAN_ANOMALY": 79.5132, "EPHEMERIS_TYPE": 0, "CLASSIFICATION_TYPE": "U", "NORAD_CAT_ID": 66735, "ELEMENT_SET_NO": 999, "REV_AT_EPOCH": 303, "BSTAR": 0.00026185831, "MEAN_MOTION_DOT": 5.134e-05, "MEAN_MOTION_DDOT": 0}, "tle": {"line1": "1 66735U 25276BX  25352.74265985  .00005134  00000+0  26186-3 0  9990", "line2": "2 66735  97.4444  64.4010 0003559 280.5701  79.5132 15.17176368  3039"}}, "geometry": {"type": "Point", "coordinates": [71.45598976655805, -38.75672028716341]}}, {"type": "Feature", "properties": {"norad_id": 66736, "name": "FLOCK 4H-33", "group": "last-30-days", "lat": 39.50477483063643, "lon": 59.27549268203675, "alt_km": 509.1523315836994, "timestamp": "2025-12-19T18:58:40.327598+00:00", "meta": {"OBJECT_NAME": "FLOCK 4H-33", "OBJECT_ID": "2025-276BY", "EPOCH": "2025-12-19T04:33:59.440320", "MEAN_MOTION": 15.18234805, "ECCENTRICITY": 0.00022844, "INCLINATION": 97.4442, "RA_OF_ASC_NODE": 64.8733, "ARG_OF_PERICENTER": 169.6179, "MEAN_ANOMALY": 190.5102, "EPHEMERIS_TYPE": 0, "CLASSIFICATION_TYPE": "U", "NORAD_CAT_ID": 66736, "ELEMENT_SET_NO": 999, "REV_AT_EPOCH": 310, "BSTAR": 0.00025842014, "MEAN_MOTION_DOT": 5.223e-05, "MEAN_MOTION_DDOT": 0}, "tle": {"line1": "1 66736U 25276BY  25353.19027130  .00005223  00000+0  25842-3 0  9996", "line2": "2 66736  97.4442  64.8733 0002284 169.6179 190.5102 15.18234805  3105"}}, "geometry": {"type": "Point", "coordinates": [59.27549268203675, 39.50477483063643]}}, {"type": "Feature", "properties": {"norad_id": 66737, "name": "FLOCK 4H-34", "group": "last-30-days", "lat": 31.86485228388169, "lon": 60.802570106808055, "alt_km": 511.0580895003841, "timestamp": "2025-12-19T18:58:40.327610+00:00", "meta": {"OBJECT_NAME": "FLOCK 4H-34", "OBJECT_ID": "2025-276BZ", "EPOCH": "2025-12-19T04:35:57.342624", "MEAN_MOTION": 15.18106701, "ECCENTRICITY": 0.00021928, "INCLINATION": 97.4452, "RA_OF_ASC_NODE": 64.8756, "ARG_OF_PERICENTER": 180.9899, "MEAN_ANOMALY": 179.1331, "EPHEMERIS_TYPE": 0, "CLASSIFICATION_TYPE": "U", "NORAD_CAT_ID": 66737, "ELEMENT_SET_NO": 999, "REV_AT_EPOCH": 235, "BSTAR": 0.0002066858, "MEAN_MOTION_DOT": 4.148e-05, "MEAN_MOTION_DDOT": 0}, "tle": {"line1": "1 66737U 25276BZ  25353.19163591  .00004148  00000+0  20669-3 0  9996", "line2": "2 66737  97.4452  64.8756 0002192 180.9899 179.1331 15.18106701  2351"}}, "geometry": {"type": "Point", "coordinates": [60.802570106808055, 31.86485228388169]}}, {"type": "Feature", "properties": {"norad_id": 66738, "name": "FLOCK 4H-35", "group": "last-30-days", "lat": 39.64960236519949, "lon": 59.23843877713649, "alt_km": 508.9171091460603, "timestamp": "2025-12-19T18:58:40.327652+00:00", "meta": {"OBJECT_NAME": "FLOCK 4H-35", "OBJECT_ID": "2025-276CA", "EPOCH": "2025-12-19T04:33:56.037024", "MEAN_MOTION": 15.18202227, "ECCENTRICITY": 0.00021329, "INCLINATION": 97.4416, "RA_OF_ASC_NODE": 64.8663, "ARG_OF_PERICENTER": 158.2077, "MEAN_ANOMALY": 201.9249, "EPHEMERIS_TYPE": 0, "CLASSIFICATION_TYPE": "U", "NORAD_CAT_ID": 66738, "ELEMENT_SET_NO": 999, "REV_AT_EPOCH": 239, "BSTAR": 0.00019961612, "MEAN_MOTION_DOT": 4.015e-05, "MEAN_MOTION_DDOT": 0}, "tle": {"line1": "1 66738U 25276CA  25353.19023191  .00004015  00000+0  19962-3 0  9995", "line2": "2 66738  97.4416  64.8663 0002132 158.2077 201.9249 15.18202227  2395"}}, "geometry": {"type": "Point", "coordinates": [59.23843877713649, 39.64960236519949]}}, {"type": "Feature", "properties": {"norad_id": 66739, "name": "FLOCK 4H-36", "group": "last-30-days", "lat": 20.562753984194256, "lon": 62.650999718305634, "alt_km": 513.4916316253511, "timestamp": "2025-12-19T18:58:40.327666+00:00", "meta": {"OBJECT_NAME": "FLOCK 4H-36", "OBJECT_ID": "2025-276CB", "EPOCH": "2025-12-18T17:34:23.894400", "MEAN_MOTION": 15.17945249, "ECCENTRICITY": 0.00020419, "INCLINATION": 97.4464, "RA_OF_ASC_NODE": 64.4219, "ARG_OF_PERICENTER": 200.057, "MEAN_ANOMALY": 160.0584, "EPHEMERIS_TYPE": 0, "CLASSIFICATION_TYPE": "U", "NORAD_CAT_ID": 66739, "ELEMENT_SET_NO": 999, "REV_AT_EPOCH": 303, "BSTAR": 0.00021998573, "MEAN_MOTION_DOT": 4.399e-05, "MEAN_MOTION_DDOT": 0}, "tle": {"line1": "1 66739U 25276CB  25352.73222100  .00004399  00000+0  21999-3 0  9994", "line2": "2 66739  97.4464  64.4219 0002041 200.0570 160.0584 15.17945249  3031"}}, "geometry": {"type": "Point", "coordinates": [62.650999718305634, 20.562753984194256]}}, {"type": "Feature", "properties": {"norad_id": 66740, "name": "TRANSPORTER-15 CC", "group": "last-30-days", "lat": -2.157273152328946, "lon": 65.72850087896413, "alt_km": 516.5280094509617, "timestamp": "2025-12-19T18:58:40.327676+00:00", "meta": {"OBJECT_NAME": "TRANSPORTER-15 CC", "OBJECT_ID": "2025-276CC", "EPOCH": "2025-12-19T04:44:45.413376", "MEAN_MOTION": 15.17659889, "ECCENTRICITY": 0.00019664, "INCLINATION": 97.4426, "RA_OF_ASC_NODE": 64.8635, "ARG_OF_PERICENTER": 258.6079, "MEAN_ANOMALY": 101.4934, "EPHEMERIS_TYPE": 0, "CLASSIFICATION_TYPE": "U", "NORAD_CAT_ID": 66740, "ELEMENT_SET_NO": 999, "REV_AT_EPOCH": 310, "BSTAR": 0.00025031819, "MEAN_MOTION_DOT": 4.974e-05, "MEAN_MOTION_DDOT": 0}, "tle": {"line1": "1 66740U 25276CC  25353.19774784  .00004974  00000+0  25032-3 0  9998", "line2": "2 66740  97.4426  64.8635 0001966 258.6079 101.4934 15.17659889  3103"}}, "geometry": {"type": "Point", "coordinates": [65.72850087896413, -2.157273152328946]}}, {"type": "Feature", "properties": {"norad_id": 66741, "name": "TRANSPORTER-15 CD", "group": "last-30-days", "lat": -6.420661326316842, "lon": 66.27971218772747, "alt_km": 517.9012093036044, "timestamp": "2025-12-19T18:58:40.327686+00:00", "meta": {"OBJECT_NAME": "TRANSPORTER-15 CD", "OBJECT_ID": "2025-276CD", "EPOCH": "2025-12-19T04:45:48.579552", "MEAN_MOTION": 15.17516587, "ECCENTRICITY": 0.00013523, "INCLINATION": 97.4421, "RA_OF_ASC_NODE": 64.8549, "ARG_OF_PERICENTER": 219.071, "MEAN_ANOMALY": 141.0426, "EPHEMERIS_TYPE": 0, "CLASSIFICATION_TYPE": "U", "NORAD_CAT_ID": 66741, "ELEMENT_SET_NO": 999, "REV_AT_EPOCH": 310, "BSTAR": 0.00011251834, "MEAN_MOTION_DOT": 2.189e-05, "MEAN_MOTION_DDOT": 0}, "tle": {"line1": "1 66741U 25276CD  25353.19847893  .00002189  00000+0  11252-3 0  9996", "line2": "2 66741  97.4421  64.8549 0001352 219.0710 141.0426 15.17516587  3108"}}, "geometry": {"type": "Point", "coordinates": [66.27971218772747, -6.420661326316842]}}]}